GLOBALSTAR M067         
1 32263U 07048A   26020.28264984 -.00000081  00000+0  12228-3 0  9995
2 32263  51.9723 120.6845 0001864 100.5566 295.3395 12.40683823836430
GLOBALSTAR M070         
1 32264U 07048B   26020.19304644 -.00000106  00000+0 -12414-4 0  9991
2 32264  51.9726 187.4080 0000853  93.8168  78.5067 12.62329585841074
GLOBALSTAR M066         
1 32265U 07048C   26020.30001260 -.00000098  00000+0 -30402-4 0  9990
2 32265  51.9586 122.4540 0005592  97.4331 296.8910 12.30385322842020
GLOBALSTAR M068         
1 32266U 07048D   26020.24519796 -.00000065  00000+0  21822-3 0  9990
2 32266  51.9910   0.5825 0000735 258.2293 115.1514 12.62838310844987
GLOBALSTAR M079         
1 37188U 10054A   26020.24448780 -.00000119  00000+0 -86433-4 0  9994
2 37188  52.0013 199.0296 0001218  79.8776  91.4871 12.62270031703860
GLOBALSTAR M074         
1 37189U 10054B   26020.27107133 -.00000116  00000+0 -69549-4 0  9998
2 37189  51.9989 198.2380 0001186  96.1762  75.3291 12.62265582704477
GLOBALSTAR M076         
1 37190U 10054C   26020.21847991 -.00000097  00000+0  40548-4 0  9992
2 37190  52.0002 198.5892 0001313  90.9757  80.8178 12.62269790704184
GLOBALSTAR M077         
1 37191U 10054D   26020.25249296 -.00000080  00000+0 -32881-4 0  9995
2 37191  51.9942 195.0272 0001723  88.1618  82.0879 11.68177851703856
